BEIDOU-2 IGSO-1 (C06)   
1 36828U 10036A   25285.66713034 -.00000120  00000+0  00000+0 0  9991
2 36828  54.2757 165.2020 0051010 216.9664 344.8656  1.00293733 55617
BEIDOU-2 G4 (C04)       
1 37210U 10057A   25285.87701760 -.00000122  00000+0  00000+0 0  9998
2 37210   3.0298  70.1106 0009704 176.3543 250.9481  1.00270080 54816
BEIDOU-2 IGSO-2 (C07)   
1 37256U 10068A   25284.91919762 -.00000186  00000+0  00000+0 0  9997
2 37256  47.9966 274.9065 0047932 217.0055 324.7816  1.00250941 54309
BEIDOU-2 IGSO-3 (C08)   
1 37384U 11013A   25285.83290641 -.00000186  00000+0  00000+0 0  9990
2 37384  62.0643  42.4972 0036231 181.7055 204.4881  1.00285190 53188
BEIDOU-2 IGSO-4 (C09)   
1 37763U 11038A   25285.69625015 -.00000071  00000+0  00000+0 0  9992
2 37763  54.5779 167.8996 0145042 230.4439 325.5962  1.00254695 52160
BEIDOU-2 IGSO-5 (C10)   
1 37948U 11073A   25285.93544703 -.00000153  00000+0  00000+0 0  9998
2 37948  48.1330 274.6024 0109756 221.7856 316.8158  1.00259805 50654
BEIDOU-2 G5 (C05)       
1 38091U 12008A   25285.92834032  .00000046  00000+0  00000+0 0  9993
2 38091   2.9541  70.8970 0008764 221.0264 122.8012  1.00275015 49883
BEIDOU-2 M3 (C11)       
1 38250U 12018A   25284.57707275 -.00000048  00000+0  00000+0 0  9992
2 38250  55.9709 313.2475 0024599 268.6291  91.1341  1.86229691 91310
BEIDOU-2 M4 (C12)       
1 38251U 12018B   25284.50946909 -.00000047  00000+0  00000+0 0  9994
2 38251  55.8732 312.4838 0015726 269.0374  90.8267  1.86231994 91311
BEIDOU-2 M6 (C14)       
1 38775U 12050B   25285.29423491 -.00000002  00000+0  00000+0 0  9995
2 38775  56.3259  71.1049 0010584 355.4377   4.5483  1.86230811 88691
BEIDOU-2 G6 (C02)       
1 38953U 12059A   25285.93336701 -.00000185  00000+0  00000+0 0  9992
2 38953   3.7906  76.0952 0006145 302.4985  63.2417  1.00272946 47433
BEIDOU-3S IGSO-1S (C31) 
1 40549U 15019A   25285.51831450 -.00000138  00000+0  00000+0 0  9998
2 40549  49.6665 298.4451 0040970 197.0780 163.1793  1.00252689 38593
BEIDOU-3S M2S (C58)     
1 40748U 15037A   25284.17720052 -.00000045  00000+0  00000+0 0  9992
2 40748  55.0922 310.6117 0012865 258.1042 101.7933  1.86229079 69486
BEIDOU-3S M1S (C57)     
1 40749U 15037B   25279.58371262 -.00000028  00000+0  00000+0 0  9998
2 40749  55.0925 310.7600 0002567 352.1766   7.8811  1.86253842 69402
BEIDOU-3S IGSO-2S (C56) 
1 40938U 15053A   25283.90704156 -.00000134  00000+0  00000+0 0  9997
2 40938  49.6131 261.7470 0062082 189.4790 350.3968  1.00284143 36852
BEIDOU-2 IGSO-6 (C13)   
1 41434U 16021A   25285.84087565 -.00000159  00000+0  00000+0 0  9995
2 41434  59.8833  40.5087 0057493 228.7059 149.8886  1.00265018 35004
BEIDOU-2 G7 (C03)       
1 41586U 16037A   25285.93856705 -.00000364  00000+0  00000+0 0  9998
2 41586   1.6053  66.9472 0005518 341.4030  61.7811  1.00276501  4414
BEIDOU-3 M1 (C19)       
1 43001U 17069A   25285.59672582  .00000000  00000+0  00000+0 0  9995
2 43001  56.4750  71.2531 0007178 312.4120  47.5237  1.86230927 53994
BEIDOU-3 M2 (C20)       
1 43002U 17069B   25284.99803191 -.00000002  00000+0  00000+0 0  9994
2 43002  56.4735  71.3093 0005504 350.8749   9.1104  1.86230682 53979
BEIDOU-3 M7 (C27)       
1 43107U 18003A   25285.27893638 -.00000047  00000+0  00000+0 0  9995
2 43107  54.5494 310.9523 0002361  92.0867 267.9810  1.86232379 52736
BEIDOU-3 M8 (C28)       
1 43108U 18003B   25283.07553566 -.00000045  00000+0  00000+0 0  9993
2 43108  54.5441 311.0121 0004949 260.2389  99.7503  1.86230831 52705
BEIDOU-3 M4 (C22)       
1 43207U 18018A   25285.66495939  .00000000  00000+0  00000+0 0  9995
2 43207  56.4339  71.3233 0005053  37.3558 322.6760  1.86230855 52136
BEIDOU-3 M3 (C21)       
1 43208U 18018B   25285.19457160 -.00000002  00000+0  00000+0 0  9991
2 43208  56.4331  71.3429 0005117 334.4634  25.5070  1.86230903 52129
BEIDOU-3 M9 (C29)       
1 43245U 18029A   25285.41076653 -.00000043  00000+0  00000+0 0  9998
2 43245  54.4193 308.6062 0002191 246.4052 113.6096  1.86232463 51284
BEIDOU-3 M10 (C30)      
1 43246U 18029B   25285.34569899 -.00000044  00000+0  00000+0 0  9991
2 43246  54.4172 308.6364 0002979 354.9054   5.1294  1.86228995 51266
BEIDOU-2 IGSO-7 (C16)   
1 43539U 18057A   25285.65147358 -.00000129  00000+0  00000+0 0  9997
2 43539  55.1675 165.2076 0091976 235.9816 327.3526  1.00275514 26649
BEIDOU-3 M5 (C23)       
1 43581U 18062A   25280.20091477  .00000030  00000+0  00000+0 0  9996
2 43581  54.0922 190.9072 0003398 310.1276  49.8853  1.86228524 48924
BEIDOU-3 M6 (C24)       
1 43582U 18062B   25285.43391539 -.00000011  00000+0  00000+0 0  9999
2 43582  54.0911 190.7182 0006536  31.3274 328.7626  1.86229698 49022
BEIDOU-3 M12 (C26)      
1 43602U 18067A   25281.07537582  .00000035  00000+0  00000+0 0  9998
2 43602  54.1857 189.5914 0008490  33.6346 326.4703  1.86227548 48426
BEIDOU-3 M11 (C25)      
1 43603U 18067B   25285.50540505 -.00000012  00000+0  00000+0 0  9996
2 43603  54.1824 189.4054 0005091  25.5954 334.4828  1.86227071 48534
BEIDOU-3 M13 (C32)      
1 43622U 18072A   25281.70343855 -.00000001  00000+0  00000+0 0  9998
2 43622  56.6124  70.9597 0015990 272.2089  87.6036  1.86276138 47973
BEIDOU-3 M14 (C33)      
1 43623U 18072B   25285.86493633 -.00000001  00000+0  00000+0 0  9990
2 43623  56.4087  70.8286 0002817  12.7783 347.2256  1.86230948 48043
BEIDOU-3 M16 (C35)      
1 43647U 18078A   25284.41276971 -.00000044  00000+0  00000+0 0  9993
2 43647  54.3167 308.7002 0005983  18.7802 341.2805  1.86232174 47528
BEIDOU-3 M15 (C34)      
1 43648U 18078B   25285.07890624 -.00000044  00000+0  00000+0 0  9994
2 43648  54.3116 308.6779 0002554  20.1037 339.9442  1.86232124 47550
BEIDOU-3 G1 (C59)       
1 43683U 18085A   25285.94446041 -.00000286  00000+0  00000+0 0  9995
2 43683   2.9521 104.3410 0003046  16.2166  21.3169  1.00271257 25580
BEIDOU-3 M17 (C36)      
1 43706U 18093A   25281.22535220  .00000034  00000+0  00000+0 0  9995
2 43706  54.1755 190.8460 0008107 297.9561 252.8540  1.86228101 46849
BEIDOU-3 M18 (C37)      
1 43707U 18093B   25279.19124669  .00000023  00000+0  00000+0 0  9998
2 43707  54.1766 190.9068 0007139 332.6915  27.3070  1.86229821 46800
BEIDOU-3 IGSO-1 (C38)   
1 44204U 19023A   25285.79366266 -.00000221  00000+0  00000+0 0  9990
2 44204  58.3504  40.2070 0025958 217.9244 167.1757  1.00262278  4738
BEIDOU-2 G8 (C01)       
1 44231U 19027A   25285.89142043 -.00000257  00000+0  00000+0 0  9999
2 44231   1.5042  74.4517 0007081 255.7042 157.0320  1.00270651 23608
BEIDOU-3 IGSO-2 (C39)   
1 44337U 19035A   25285.63047105 -.00000129  00000+0  00000+0 0  9998
2 44337  55.2139 161.0401 0037235 203.0807   2.2752  1.00290119 23186
BEIDOU-3 M24 (C46)      
1 44542U 19061A   25279.26270484  .00000023  00000+0  00000+0 0  9997
2 44542  54.4036 191.2933 0009011  10.1370 349.9168  1.86229365 41067
BEIDOU-3 M23 (C45)      
1 44543U 19061B   25281.30105446  .00000034  00000+0  00000+0 0  9993
2 44543  54.4016 191.1929 0005718   0.3063 199.1630  1.86229353 41101
BEIDOU-3 IGSO-3 (C40)   
1 44709U 19073A   25281.41051933 -.00000178  00000+0  00000+0 0  9993
2 44709  55.2353 283.6195 0045333 192.0567 167.8179  1.00263605 21938
BEIDOU-3 M22 (C44)      
1 44793U 19078A   25285.01005928 -.00000044  00000+0  00000+0 0  9996
2 44793  54.1626 308.5521 0004636  24.5560 335.5038  1.86231987 40026
BEIDOU-3 M21 (C43)      
1 44794U 19078B   25285.14631057 -.00000044  00000+0  00000+0 0  9999
2 44794  54.1360 308.5135 0002869   8.9630 351.0796  1.86227647 40036
BEIDOU-3 M19 (C41)      
1 44864U 19090A   25285.93241368  .00000000  00000+0  00000+0 0  9991
2 44864  56.3413  70.9767 0015716 286.0068  76.2711  1.86231235 39632
BEIDOU-3 M20 (C42)      
1 44865U 19090B   25285.79932785 -.00000001  00000+0  00000+0 0  9998
2 44865  56.3429  71.0151 0013082 300.7925  61.8756  1.86231186 39611
BEIDOU-3 G2 (C60)       
1 45344U 20017A   25285.93250035 -.00000151  00000+0  00000+0 0  9995
2 45344   2.8856  42.6077 0002618 256.0006 138.8834  1.00272081 20786
BEIDOU-3 G3 (C61)       
1 45807U 20040A   25285.93856705 -.00000364  00000+0  00000+0 0  9997
2 45807   1.8406  65.9187 0004081 304.5822  99.7391  1.00269195 19593
BEIDOU-3 G4 (C62)       
1 56564U 23066A   25285.86744201 -.00000124  00000+0  00000+0 0  9993
2 56564   0.9541 297.6779 0005130 224.5034 331.7357  1.00268170  8915
BEIDOU-3 M28 (C50)      
1 58654U 23207A   25284.68797876 -.00000007  00000+0  00000+0 0  9997
2 58654  55.5305  70.7009 0000216 192.3866 167.6078  1.86229646 12215
BEIDOU-3 M26 (C48)      
1 58655U 23207B   25285.02308726 -.00000006  00000+0  00000+0 0  9998
2 58655  55.5328  70.6757 0001763 227.0137 132.9670  1.86231274 12207
BEIDOU-3 M25 (C47)      
1 61186U 24168B   25284.84417936 -.00000047  00000+0  00000+0 0  9996
2 61186  54.6948 310.8647 0005304 282.4327  74.7207  1.86229804  7159
BEIDOU-3 M27 (C49)      
1 61187U 24168C   25284.64453983 -.00000047  00000+0  00000+0 0  9997
2 61187  54.6904 310.8555 0001576 304.8070  53.4121  1.86229882  4625
